#cP2023  5 17  0  0  0.00000000      96 ORBIT IGS20 HLM  IGS
## 2262 259200.00000000   900.00000000 60081 0.0000000000000
+   32   G01G02G03G04G05G06G07G08G09G10G11G12G13G14G15G16G17
+        G18G19G20G21G22G23G24G25G26G27G28G29G30G31G32  0  0
+          0  0  0  0  0  0  0  0  0  0  0  0  0  0  0  0  0
+          0  0  0  0  0  0  0  0  0  0  0  0  0  0  0  0  0
+          0  0  0  0  0  0  0  0  0  0  0  0  0  0  0  0  0
++         2  2  2  2  2  2  2  2  2  2  2  2  2  2  2  3  2
++         2  2  2  2  2  2  2  2  3  3  2  2  2  2  2  0  0
++         0  0  0  0  0  0  0  0  0  0  0  0  0  0  0  0  0
++         0  0  0  0  0  0  0  0  0  0  0  0  0  0  0  0  0
++         0  0  0  0  0  0  0  0  0  0  0  0  0  0  0  0  0
%c G  cc GPS ccc cccc cccc cccc cccc ccccc ccccc ccccc ccccc
%c cc cc ccc ccc cccc cccc cccc cccc ccccc ccccc ccccc ccccc
%f  1.2500000  1.025000000  0.00000000000  0.000000000000000
%f  0.0000000  0.000000000  0.00000000000  0.000000000000000
%i    0    0    0    0      0      0      0      0         0
%i    0    0    0    0      0      0      0      0         0
/* RAPID ORBIT COMBINATION FROM WEIGHTED AVERAGE OF:        
/* cod emr esa gfz grg jpl ngs sio usn whu                  
/* REFERENCED TO IGS TIME (IGST) AND TO WEIGHTED MEAN POLE: 
/* PCV:IGS20_2233 OL/AL:FES2014b NONE     Y  ORB:CMB CLK:CMB
*  2023  5 17 11 15  0.00000000
PG01   6139.120299 -17495.842491 -19208.903911    184.708052  7  5  5  84       
PG02  23625.012318 -10685.590067   5978.276699   -595.331127  7  4  6  88       
PG03  -5070.126470 -18015.078866 -19026.204478   -300.710547  6  4  3  81       
PG04     57.806087 -26425.224705   1980.492405     43.698839  6  8  2  66       
PG05 -11877.763487  10269.271454  21264.443167   -127.528320  3  4  4  43       
PG06 -23248.850384   3213.444330 -12469.827985    587.959103  9  6  5  84       
PG07 -10052.052211 -12255.928116  21805.839777    176.095718  4  6  6  77       
PG08   6921.650060 -23328.355232  10087.409051   -122.836609  5  4  4  95       
PG09  -8020.612492 -22610.463039  11278.234685   -156.937165  7  5  3  89       
PG10  23963.804885  10855.701050  -4537.495059    -37.287307  8  7  7  84       
PG11 -23319.694391  12571.824745   1601.701001   -200.054796  8  4  5  96       
PG12    877.903442  17643.961188 -20137.771055   -377.093338  7  6  2 103       
PG13 -13001.092777  17662.313357  14657.677676    521.160778  3  5     76       
PG14 -23050.516384 -13205.921414  -2021.349962     59.804485  9  7  6  70       
PG15  -3802.577118  24377.293379   9023.339847     40.328185  5  3  5  63       
PG16  15793.745060  -5876.324143  20332.552889   -500.255547  8  6  6 119       
PG17 -13158.701167  -9717.012975 -20476.022747    715.108755  6  2  5  83       
PG18  12680.846915   9657.826521  21270.514995   -269.866630  7  6  7 109       
PG19 -15084.872085   -464.183156 -22068.876432    318.056391  7  3  6  60       
PG20 -19364.657970   5637.569678  17219.598912    433.112369  6  4  5  82       
PG21  13583.153621 -18790.137659 -11578.026275    153.769834  3  4  5  93       
PG22  15125.030829  -3769.870339 -21031.862027    482.760518  8  4  7  73       
PG23  19573.977346  16613.897596   7110.509459     24.920026 10  4  7  87       
PG24  -8871.416097  19740.617326 -15470.641044   -191.852301  6  4  3 119       
PG25  13035.931565  18990.134627 -13768.829510    443.425603  6  8  7  82       
PG26  23532.293803   1820.960813  12391.566320    240.679488  8  7  9  90       
PG27  12652.883592 -14313.118568  18020.115875     35.677595  5  6  4  99       
PG28  22513.355404  -2105.603939 -13953.755860     78.280657  7  4  4  96       
PG29   3789.016380  24608.024854   9068.930172   -599.726956  5  4  7  88       
PG30 -19578.762550  -4243.395511  17677.033963   -516.693094  5  6  3  89       
PG31  24749.354754  -9362.102298  -4448.079191   -216.281511  6  4  5  67       
PG32  14667.172310   6517.440457 -21014.259605   -478.588754  6  4  6  73       
*  2023  5 17 11 30  0.00000000
PG01   7969.988921 -18418.249880 -17543.971302    184.705473  7  6  6  95       
PG02  23122.579421 -10052.341624   8692.779673   -595.327658  8  4  6  86       
PG03  -3094.586869 -17002.360303 -20335.092647   -300.700384  6  5  2  90       
PG04    319.182655 -26481.115862   -884.090714     43.707651  6  8  2  74       
PG05 -14013.852524   9127.052039  20487.393929   -127.529732  3  4  4  64       
PG06 -21967.751029   2314.910470 -14760.748483    587.958653  9  6  5 105       
PG07  -7976.376128 -13472.297686  21905.206782    176.087150  4  6  6  89       
PG08   7225.191574 -22021.792890  12535.935179   -122.837914  5  5  5  89       
PG09  -7817.021893 -23775.938182   8754.672791   -156.929629  7  5  4  79       
PG10  24201.427910  11194.245277  -1693.492539    -37.288727  9  7  7  76       
PG11 -23450.315594  12363.654394  -1265.604477   -200.067359  9  4  5  99       
PG12  -1087.176980  16444.594894 -21124.764972   -377.097457  7  6  2 105       
PG13 -12948.587586  15827.881132  16658.654373    521.165282  2  5     39       
PG14 -22968.511503 -13479.481410    801.298500     59.815938  9  7  6  96       
PG15  -4312.445813  23194.782273  11480.789837     40.331420  5  4  5  81       
PG16  17652.698128  -4505.301706  19177.190050   -500.252443  9  6  6 108       
PG17 -12944.388776 -12072.921983 -19342.099932    715.110001  6  2  5 101       
PG18  10560.848644  10904.563532  21805.743606   -269.880841  6  5  7 102       
PG19 -14863.503009  -2926.458042 -22055.954925    318.061125  7  4  6  88       
PG20 -21057.066726   4821.686985  15360.554438    433.110295  6  3  6  87       
PG21  14793.982726 -19296.961384  -9028.210602    153.769644  3  4  6  91       
PG22  14992.081194  -1245.269304 -21430.329322    482.766289  9  5  7  75       
PG23  18635.378906  16338.094678   9762.671737     24.922832  9  3  7  81       
PG24 -10337.303554  20474.441369 -13383.245239   -191.864703  6  3  3 110       
PG25  11512.460206  18364.277435 -15842.417104    443.427945  6  7  7  85       
PG26  24588.412571   2610.324296  10024.017798    240.679045  8  7  9 100       
PG27  12833.126090 -12111.807397  19466.744665     35.670427  4  7  4  94       
PG28  21172.495916  -1026.163129 -16024.129028     78.283532  7  4  4  83       
PG29   3528.377264  25483.569366   6362.227865   -599.728325  6  4  7  88       
PG30 -17854.883738  -5423.253253  19106.200295   -516.691182  4  5  4  78       
PG31  24306.787276  -8851.123849  -7163.298468   -216.282422  5  5  5  63       
PG32  14646.462178   8907.778756 -20158.587853   -478.597032  6  5  6  75       
*  2023  5 17 11 45  0.00000000
PG01   9578.581145 -19332.006417 -15580.393686    184.702898  6  6  6  78       
PG02  22422.891455  -9212.185774  11259.552257   -595.324114  8  3  6  90       
PG03   -950.306298 -16044.766835 -21299.003393   -300.690250  6  5  2  77       
PG04    589.466910 -26226.300701  -3733.348679     43.716456  6  8  3  74       
PG05 -16105.463965   8142.676378  19353.263729   -127.530771  4  4  5  98       
PG06 -20534.753738   1208.109078 -16797.842650    587.958183  9  6  5  79       
PG07  -5969.819379 -14792.097734  21642.736625    176.079000  4  6  7  86       
PG08   7620.369275 -20467.283118  14763.530841   -122.838938  5  5  4  97       
PG09  -7646.139830 -24656.510189   6079.659165   -156.922038  8  5  4  90       
PG10  24167.800580  11378.047026   1179.164402    -37.290023  9  7  7  74       
PG11 -23314.719243  11994.803057  -4111.078009   -200.079966 10  4  5  93       
PG12  -3192.255276  15307.474712 -21757.631978   -377.101627  7  6  2 111       
PG13 -12979.046658  13781.646018  18366.928693    521.170227  2  5     83       
PG14 -22619.719794 -13609.227087   3610.283356     59.827408  8  7  7  87       
PG15  -4935.001430  21771.922642  13733.266546     40.334566  5  5  5  83       
PG16  19448.062921  -3315.221407  17687.737300   -500.249719  9  6  6 106       
PG17 -12854.143777 -14284.590927 -17862.212730    715.110918  6  2  5  66       
PG18   8477.333346  12286.809142  21966.158806   -269.894993  5  5  7 101       
PG19 -14778.194854  -5372.187108 -21671.829562    318.065537  7  4  6  79       
PG20 -22572.556291   4153.808060  13235.569605    433.108368  7  4  6  90       
PG21  15736.871015 -19671.341849  -6311.552644    153.769374  4  4  6  84       
PG22  14987.634476   1305.404005 -21443.955219    482.772170  9  6  7  98       
PG23  17417.928797  15995.161430  12248.250574     24.925595  9  3  8  74       
PG24 -11578.658174  21121.280195 -11065.427718   -191.877220  6  3  4 104       
PG25   9763.347978  17726.104838 -17651.999039    443.430313  7  7  6 100       
PG26  25425.748269   3242.114761   7486.261552    240.678539  8  8 10 153       
PG27  13138.214812  -9778.945179  20567.384931     35.663262  5  6  4  98       
PG28  19713.283152    250.550150 -17819.125678     78.286448  6  5  5 101       
PG29   3316.987080  26057.716757   3545.294651   -599.729416  7  5  7  82       
PG30 -16070.970498  -6765.067220  20211.955718   -516.689256  4  5  5  91       
PG31  23642.104274  -8157.660538  -9759.060060   -216.282836  5  6  5  70       
PG32  14739.822444  11176.507706 -18952.168370   -478.605413  7  5  6  87       
EOF
